{
  "norad_id": 58722,
  "name": "STARLINK-31040",
  "history": [
    {
      "epoch": "2026-03-28T13:30:38.413440Z",
      "apogee_km": 475.98737482752585,
      "perigee_km": 474.46318705624344,
      "latitude_deg": -1.1197689224369266e-05,
      "longitude_deg": 113.71073634541904,
      "height_km": 476.0289947774017,
      "semi_major_axis_km": 6853.362280941884,
      "eccentricity": 0.0001112,
      "inclination_deg": 53.1604,
      "raan_deg": 142.3524,
      "arg_perigee_deg": 82.8669,
      "mean_anomaly_deg": 277.2458,
      "mean_motion_rev_day": 15.3019658
    }
  ]
}